<?xml version="1.0" encoding="UTF-8"?>
<gpx creator="StravaGPX" version="1.1" xmlns="http://www.topografix.com/GPX/1/1" xmlns:xsi="http://www.w3.org/2001/XMLSchema-instance" xsi:schemaLocation="http://www.topografix.com/GPX/1/1 http://www.topografix.com/GPX/1/1/gpx.xsd">
 <metadata>
  <name>Semimaraton TRC 2026</name>
  <author>
   <name>Iulian Alexandru Costeiu</name>
   <link href="https://www.strava.com/athletes/22669758"/>
  </author>
  <copyright author="OpenStreetMap contributors">
   <year>2020</year>
   <license>https://www.openstreetmap.org/copyright</license>
  </copyright>
  <link href="https://www.strava.com/routes/3461073468052483520"/>
 </metadata>
 <trk>
  <name>Semimaraton TRC 2026</name>
  <link href="https://www.strava.com/routes/3461073468052483520"/>
  <type>running</type>
  <trkseg>
   <trkpt lat="45.613620000000004" lon="24.32262">
    <ele>705.6800000000001</ele>
   </trkpt>
   <trkpt lat="45.6137" lon="24.322580000000002">
    <ele>703.5300000000001</ele>
   </trkpt>
   <trkpt lat="45.613800000000005" lon="24.322570000000002">
    <ele>699.6600000000001</ele>
   </trkpt>
   <trkpt lat="45.61399" lon="24.322450000000003">
    <ele>698.28</ele>
   </trkpt>
   <trkpt lat="45.61415" lon="24.322470000000003">
    <ele>698.28</ele>
   </trkpt>
   <trkpt lat="45.61450000000001" lon="24.322840000000003">
    <ele>696.4</ele>
   </trkpt>
   <trkpt lat="45.6146" lon="24.32288">
    <ele>695.95</ele>
   </trkpt>
   <trkpt lat="45.61477000000001" lon="24.3229">
    <ele>695.64</ele>
   </trkpt>
   <trkpt lat="45.614990000000006" lon="24.322850000000003">
    <ele>695.5</ele>
   </trkpt>
   <trkpt lat="45.61513" lon="24.3228">
    <ele>695.3900000000001</ele>
   </trkpt>
   <trkpt lat="45.61524000000001" lon="24.322730000000004">
    <ele>695.19</ele>
   </trkpt>
   <trkpt lat="45.6154" lon="24.322570000000002">
    <ele>694.19</ele>
   </trkpt>
   <trkpt lat="45.61549" lon="24.322550000000003">
    <ele>694.19</ele>
   </trkpt>
   <trkpt lat="45.615550000000006" lon="24.322580000000002">
    <ele>693.88</ele>
   </trkpt>
   <trkpt lat="45.615590000000005" lon="24.322670000000002">
    <ele>693.61</ele>
   </trkpt>
   <trkpt lat="45.61562000000001" lon="24.322930000000003">
    <ele>693.2600000000001</ele>
   </trkpt>
   <trkpt lat="45.61565" lon="24.323040000000002">
    <ele>692.97</ele>
   </trkpt>
   <trkpt lat="45.615750000000006" lon="24.323220000000003">
    <ele>692.2600000000001</ele>
   </trkpt>
   <trkpt lat="45.61582000000001" lon="24.32326">
    <ele>692.0400000000001</ele>
   </trkpt>
   <trkpt lat="45.61589" lon="24.32326">
    <ele>692.0400000000001</ele>
   </trkpt>
   <trkpt lat="45.615990000000004" lon="24.323400000000003">
    <ele>690.5300000000001</ele>
   </trkpt>
   <trkpt lat="45.616040000000005" lon="24.323410000000003">
    <ele>690.2600000000001</ele>
   </trkpt>
   <trkpt lat="45.61612" lon="24.32336">
    <ele>689.2600000000001</ele>
   </trkpt>
   <trkpt lat="45.61612" lon="24.323290000000004">
    <ele>689.2600000000001</ele>
   </trkpt>
   <trkpt lat="45.616170000000004" lon="24.323240000000002">
    <ele>690.28</ele>
   </trkpt>
   <trkpt lat="45.61618000000001" lon="24.32317">
    <ele>690.23</ele>
   </trkpt>
   <trkpt lat="45.616170000000004" lon="24.323030000000003">
    <ele>689.84</ele>
   </trkpt>
   <trkpt lat="45.61621" lon="24.32298">
    <ele>690.03</ele>
   </trkpt>
   <trkpt lat="45.61627000000001" lon="24.322960000000002">
    <ele>690.8100000000001</ele>
   </trkpt>
   <trkpt lat="45.616310000000006" lon="24.322860000000002">
    <ele>691.0400000000001</ele>
   </trkpt>
   <trkpt lat="45.616310000000006" lon="24.322770000000002">
    <ele>690.86</ele>
   </trkpt>
   <trkpt lat="45.616290000000006" lon="24.322670000000002">
    <ele>690.69</ele>
   </trkpt>
   <trkpt lat="45.616350000000004" lon="24.322570000000002">
    <ele>692.03</ele>
   </trkpt>
   <trkpt lat="45.616490000000006" lon="24.322450000000003">
    <ele>695.73</ele>
   </trkpt>
   <trkpt lat="45.61648" lon="24.32244">
    <ele>694.52</ele>
   </trkpt>
   <trkpt lat="45.616510000000005" lon="24.32242">
    <ele>694.52</ele>
   </trkpt>
   <trkpt lat="45.616640000000004" lon="24.32212">
    <ele>701.5400000000001</ele>
   </trkpt>
   <trkpt lat="45.61668" lon="24.32204">
    <ele>703.23</ele>
   </trkpt>
   <trkpt lat="45.616730000000004" lon="24.321980000000003">
    <ele>705.67</ele>
   </trkpt>
   <trkpt lat="45.61693" lon="24.32184">
    <ele>709.98</ele>
   </trkpt>
   <trkpt lat="45.61706" lon="24.321830000000002">
    <ele>713.7500000000001</ele>
   </trkpt>
   <trkpt lat="45.617180000000005" lon="24.32186">
    <ele>716.82</ele>
   </trkpt>
   <trkpt lat="45.617290000000004" lon="24.321930000000002">
    <ele>722.04</ele>
   </trkpt>
   <trkpt lat="45.6174" lon="24.321900000000003">
    <ele>725.62</ele>
   </trkpt>
   <trkpt lat="45.617560000000005" lon="24.321460000000002">
    <ele>732.53</ele>
   </trkpt>
   <trkpt lat="45.617740000000005" lon="24.321260000000002">
    <ele>740.24</ele>
   </trkpt>
   <trkpt lat="45.61786" lon="24.32137">
    <ele>746.47</ele>
   </trkpt>
   <trkpt lat="45.617990000000006" lon="24.321640000000002">
    <ele>753.24</ele>
   </trkpt>
   <trkpt lat="45.61797000000001" lon="24.321810000000003">
    <ele>757.5200000000001</ele>
   </trkpt>
   <trkpt lat="45.61787" lon="24.321980000000003">
    <ele>761.7400000000001</ele>
   </trkpt>
   <trkpt lat="45.61779000000001" lon="24.322190000000003">
    <ele>764.94</ele>
   </trkpt>
   <trkpt lat="45.61777000000001" lon="24.32251">
    <ele>769.05</ele>
   </trkpt>
   <trkpt lat="45.617850000000004" lon="24.322560000000003">
    <ele>770.8000000000001</ele>
   </trkpt>
   <trkpt lat="45.61795" lon="24.322470000000003">
    <ele>774.5900000000001</ele>
   </trkpt>
   <trkpt lat="45.618100000000005" lon="24.322470000000003">
    <ele>777.46</ele>
   </trkpt>
   <trkpt lat="45.61826000000001" lon="24.32251">
    <ele>785.24</ele>
   </trkpt>
   <trkpt lat="45.618610000000004" lon="24.322770000000002">
    <ele>797.5300000000001</ele>
   </trkpt>
   <trkpt lat="45.61896" lon="24.322930000000003">
    <ele>808.74</ele>
   </trkpt>
   <trkpt lat="45.619240000000005" lon="24.323030000000003">
    <ele>814.4100000000001</ele>
   </trkpt>
   <trkpt lat="45.61923" lon="24.323420000000002">
    <ele>817.73</ele>
   </trkpt>
   <trkpt lat="45.61925" lon="24.323590000000003">
    <ele>818.0400000000001</ele>
   </trkpt>
   <trkpt lat="45.61925" lon="24.323580000000003">
    <ele>818.03</ele>
   </trkpt>
   <trkpt lat="45.619310000000006" lon="24.324060000000003">
    <ele>819.9900000000001</ele>
   </trkpt>
   <trkpt lat="45.61932" lon="24.324450000000002">
    <ele>815.91</ele>
   </trkpt>
   <trkpt lat="45.61927" lon="24.325370000000003">
    <ele>812.5000000000001</ele>
   </trkpt>
   <trkpt lat="45.61928" lon="24.325750000000003">
    <ele>820.03</ele>
   </trkpt>
   <trkpt lat="45.61936" lon="24.32609">
    <ele>824.3600000000001</ele>
   </trkpt>
   <trkpt lat="45.61959" lon="24.326780000000003">
    <ele>824.79</ele>
   </trkpt>
   <trkpt lat="45.61968" lon="24.327150000000003">
    <ele>827.6300000000001</ele>
   </trkpt>
   <trkpt lat="45.619640000000004" lon="24.32749">
    <ele>830.83</ele>
   </trkpt>
   <trkpt lat="45.61943" lon="24.32775">
    <ele>836.01</ele>
   </trkpt>
   <trkpt lat="45.619200000000006" lon="24.327890000000004">
    <ele>840.4</ele>
   </trkpt>
   <trkpt lat="45.618880000930496" lon="24.328355002672307">
    <ele>843.21</ele>
   </trkpt>
   <trkpt lat="45.61856" lon="24.32882">
    <ele>843.84</ele>
   </trkpt>
   <trkpt lat="45.618190000000006" lon="24.329690000000003">
    <ele>847.0900000000001</ele>
   </trkpt>
   <trkpt lat="45.61809" lon="24.33001">
    <ele>849.59</ele>
   </trkpt>
   <trkpt lat="45.617850000000004" lon="24.33041">
    <ele>853.16</ele>
   </trkpt>
   <trkpt lat="45.61797000000001" lon="24.33039">
    <ele>853.16</ele>
   </trkpt>
   <trkpt lat="45.61807" lon="24.330330000000004">
    <ele>853.16</ele>
   </trkpt>
   <trkpt lat="45.61836" lon="24.330070000000003">
    <ele>853.16</ele>
   </trkpt>
   <trkpt lat="45.61858" lon="24.32992">
    <ele>853.16</ele>
   </trkpt>
   <trkpt lat="45.618750000000006" lon="24.32984">
    <ele>853.16</ele>
   </trkpt>
   <trkpt lat="45.61885" lon="24.32983">
    <ele>853.16</ele>
   </trkpt>
   <trkpt lat="45.61901" lon="24.32976">
    <ele>853.16</ele>
   </trkpt>
   <trkpt lat="45.61914" lon="24.329610000000002">
    <ele>853.16</ele>
   </trkpt>
   <trkpt lat="45.61925" lon="24.32954">
    <ele>853.16</ele>
   </trkpt>
   <trkpt lat="45.61938000000001" lon="24.32955">
    <ele>853.16</ele>
   </trkpt>
   <trkpt lat="45.619530000000005" lon="24.329600000000003">
    <ele>853.16</ele>
   </trkpt>
   <trkpt lat="45.61972" lon="24.329580000000004">
    <ele>853.16</ele>
   </trkpt>
   <trkpt lat="45.61994000000001" lon="24.329410000000003">
    <ele>853.16</ele>
   </trkpt>
   <trkpt lat="45.62035" lon="24.328940000000003">
    <ele>842.45</ele>
   </trkpt>
   <trkpt lat="45.620610000000006" lon="24.328460000000003">
    <ele>842.45</ele>
   </trkpt>
   <trkpt lat="45.620760000000004" lon="24.32813">
    <ele>842.45</ele>
   </trkpt>
   <trkpt lat="45.621170000000006" lon="24.32738">
    <ele>842.45</ele>
   </trkpt>
   <trkpt lat="45.62129" lon="24.327240000000003">
    <ele>842.45</ele>
   </trkpt>
   <trkpt lat="45.621550000000006" lon="24.327080000000002">
    <ele>842.45</ele>
   </trkpt>
   <trkpt lat="45.62196" lon="24.327090000000002">
    <ele>842.45</ele>
   </trkpt>
   <trkpt lat="45.622440000000005" lon="24.32741">
    <ele>842.45</ele>
   </trkpt>
   <trkpt lat="45.622580000000006" lon="24.327650000000002">
    <ele>812.2</ele>
   </trkpt>
   <trkpt lat="45.622620000000005" lon="24.32777">
    <ele>812.2</ele>
   </trkpt>
   <trkpt lat="45.62266" lon="24.327980000000004">
    <ele>812.2</ele>
   </trkpt>
   <trkpt lat="45.62268" lon="24.32854">
    <ele>812.2</ele>
   </trkpt>
   <trkpt lat="45.62268" lon="24.32853">
    <ele>812.3100000000001</ele>
   </trkpt>
   <trkpt lat="45.62276000000001" lon="24.329">
    <ele>812.3100000000001</ele>
   </trkpt>
   <trkpt lat="45.622820000000004" lon="24.329200000000004">
    <ele>812.3100000000001</ele>
   </trkpt>
   <trkpt lat="45.62294000000001" lon="24.32947">
    <ele>812.3100000000001</ele>
   </trkpt>
   <trkpt lat="45.6233" lon="24.329880000000003">
    <ele>812.3100000000001</ele>
   </trkpt>
   <trkpt lat="45.623720000000006" lon="24.330270000000002">
    <ele>812.3100000000001</ele>
   </trkpt>
   <trkpt lat="45.62424000068142" lon="24.33066499633672">
    <ele>721.8500000000001</ele>
   </trkpt>
   <trkpt lat="45.62476" lon="24.33106">
    <ele>721.8500000000001</ele>
   </trkpt>
   <trkpt lat="45.62536" lon="24.331670000000003">
    <ele>721.8500000000001</ele>
   </trkpt>
   <trkpt lat="45.62603500075074" lon="24.3320449955608">
    <ele>721.8500000000001</ele>
   </trkpt>
   <trkpt lat="45.62671" lon="24.332420000000003">
    <ele>721.8500000000001</ele>
   </trkpt>
   <trkpt lat="45.627410000000005" lon="24.332890000000003">
    <ele>721.8500000000001</ele>
   </trkpt>
   <trkpt lat="45.62797500129046" lon="24.333429994574587">
    <ele>721.8500000000001</ele>
   </trkpt>
   <trkpt lat="45.62854" lon="24.33397">
    <ele>721.8500000000001</ele>
   </trkpt>
   <trkpt lat="45.62883" lon="24.33443">
    <ele>721.8500000000001</ele>
   </trkpt>
   <trkpt lat="45.629470000000005" lon="24.33518">
    <ele>721.8500000000001</ele>
   </trkpt>
   <trkpt lat="45.629870000000004" lon="24.33601">
    <ele>523.4300000000001</ele>
   </trkpt>
   <trkpt lat="45.63022" lon="24.337000000000003">
    <ele>523.4300000000001</ele>
   </trkpt>
   <trkpt lat="45.630300000000005" lon="24.337100000000003">
    <ele>523.4300000000001</ele>
   </trkpt>
   <trkpt lat="45.63042" lon="24.33708">
    <ele>523.4300000000001</ele>
   </trkpt>
   <trkpt lat="45.63058" lon="24.337000000000003">
    <ele>523.4300000000001</ele>
   </trkpt>
   <trkpt lat="45.630720000000004" lon="24.33696">
    <ele>523.4300000000001</ele>
   </trkpt>
   <trkpt lat="45.63092" lon="24.33679">
    <ele>523.4300000000001</ele>
   </trkpt>
   <trkpt lat="45.631080000000004" lon="24.336740000000002">
    <ele>523.4300000000001</ele>
   </trkpt>
   <trkpt lat="45.631170000000004" lon="24.33676">
    <ele>523.4300000000001</ele>
   </trkpt>
   <trkpt lat="45.63129000000001" lon="24.33686">
    <ele>523.4300000000001</ele>
   </trkpt>
   <trkpt lat="45.631420000000006" lon="24.33706">
    <ele>523.4300000000001</ele>
   </trkpt>
   <trkpt lat="45.631800000000005" lon="24.337780000000002">
    <ele>523.4300000000001</ele>
   </trkpt>
   <trkpt lat="45.632000000000005" lon="24.337950000000003">
    <ele>523.4300000000001</ele>
   </trkpt>
   <trkpt lat="45.632090000000005" lon="24.337960000000002">
    <ele>523.4300000000001</ele>
   </trkpt>
   <trkpt lat="45.632180000000005" lon="24.33791">
    <ele>523.4300000000001</ele>
   </trkpt>
   <trkpt lat="45.632310000000004" lon="24.337740000000004">
    <ele>523.4300000000001</ele>
   </trkpt>
   <trkpt lat="45.63239" lon="24.33771">
    <ele>523.4300000000001</ele>
   </trkpt>
   <trkpt lat="45.63264" lon="24.33791">
    <ele>523.4300000000001</ele>
   </trkpt>
   <trkpt lat="45.63268" lon="24.33799">
    <ele>523.4300000000001</ele>
   </trkpt>
   <trkpt lat="45.632690000000004" lon="24.33808">
    <ele>523.4300000000001</ele>
   </trkpt>
   <trkpt lat="45.63264" lon="24.3382">
    <ele>523.4300000000001</ele>
   </trkpt>
   <trkpt lat="45.632450000000006" lon="24.33836">
    <ele>523.4300000000001</ele>
   </trkpt>
   <trkpt lat="45.63237" lon="24.33847">
    <ele>521.93</ele>
   </trkpt>
   <trkpt lat="45.632360000000006" lon="24.33858">
    <ele>521.93</ele>
   </trkpt>
   <trkpt lat="45.63237" lon="24.338710000000003">
    <ele>521.93</ele>
   </trkpt>
   <trkpt lat="45.63237" lon="24.338700000000003">
    <ele>521.93</ele>
   </trkpt>
   <trkpt lat="45.63243000000001" lon="24.33886">
    <ele>521.93</ele>
   </trkpt>
   <trkpt lat="45.63251" lon="24.33892">
    <ele>521.93</ele>
   </trkpt>
   <trkpt lat="45.633010000000006" lon="24.33895">
    <ele>521.93</ele>
   </trkpt>
   <trkpt lat="45.633390000000006" lon="24.338910000000002">
    <ele>521.93</ele>
   </trkpt>
   <trkpt lat="45.63369" lon="24.33885">
    <ele>521.93</ele>
   </trkpt>
   <trkpt lat="45.633810000000004" lon="24.33875">
    <ele>521.93</ele>
   </trkpt>
   <trkpt lat="45.633860000000006" lon="24.33855">
    <ele>521.93</ele>
   </trkpt>
   <trkpt lat="45.633860000000006" lon="24.338310000000003">
    <ele>521.93</ele>
   </trkpt>
   <trkpt lat="45.63392" lon="24.33808">
    <ele>521.93</ele>
   </trkpt>
   <trkpt lat="45.634080000000004" lon="24.33801">
    <ele>521.93</ele>
   </trkpt>
   <trkpt lat="45.63472" lon="24.33798">
    <ele>521.93</ele>
   </trkpt>
   <trkpt lat="45.635270000000006" lon="24.337770000000003">
    <ele>521.93</ele>
   </trkpt>
   <trkpt lat="45.6358" lon="24.33734">
    <ele>521.93</ele>
   </trkpt>
   <trkpt lat="45.63622" lon="24.337100000000003">
    <ele>496.88000000000005</ele>
   </trkpt>
   <trkpt lat="45.63658" lon="24.33698">
    <ele>496.88000000000005</ele>
   </trkpt>
   <trkpt lat="45.636900000000004" lon="24.337020000000003">
    <ele>496.88000000000005</ele>
   </trkpt>
   <trkpt lat="45.637280000000004" lon="24.337040000000002">
    <ele>496.88000000000005</ele>
   </trkpt>
   <trkpt lat="45.637420000000006" lon="24.337030000000002">
    <ele>496.88000000000005</ele>
   </trkpt>
   <trkpt lat="45.637800000000006" lon="24.33689">
    <ele>496.88000000000005</ele>
   </trkpt>
   <trkpt lat="45.638000000000005" lon="24.3367">
    <ele>496.88000000000005</ele>
   </trkpt>
   <trkpt lat="45.63833" lon="24.336280000000002">
    <ele>496.88000000000005</ele>
   </trkpt>
   <trkpt lat="45.63859" lon="24.33601">
    <ele>496.88000000000005</ele>
   </trkpt>
   <trkpt lat="45.63873" lon="24.335900000000002">
    <ele>496.88000000000005</ele>
   </trkpt>
   <trkpt lat="45.638940000000005" lon="24.335800000000003">
    <ele>496.88000000000005</ele>
   </trkpt>
   <trkpt lat="45.63911" lon="24.33576">
    <ele>496.88000000000005</ele>
   </trkpt>
   <trkpt lat="45.63929" lon="24.335780000000003">
    <ele>496.88000000000005</ele>
   </trkpt>
   <trkpt lat="45.639700000000005" lon="24.33586">
    <ele>496.88000000000005</ele>
   </trkpt>
   <trkpt lat="45.63991" lon="24.335970000000003">
    <ele>496.88000000000005</ele>
   </trkpt>
   <trkpt lat="45.64" lon="24.336070000000003">
    <ele>495.20000000000005</ele>
   </trkpt>
   <trkpt lat="45.6403" lon="24.33649">
    <ele>486.22</ele>
   </trkpt>
   <trkpt lat="45.64054" lon="24.33679">
    <ele>479.90000000000003</ele>
   </trkpt>
   <trkpt lat="45.640550000000005" lon="24.336850000000002">
    <ele>479.29</ele>
   </trkpt>
   <trkpt lat="45.640530000000005" lon="24.337010000000003">
    <ele>478.29</ele>
   </trkpt>
   <trkpt lat="45.64058000000001" lon="24.337310000000002">
    <ele>478.72</ele>
   </trkpt>
   <trkpt lat="45.640480000000004" lon="24.337780000000002">
    <ele>481.73</ele>
   </trkpt>
   <trkpt lat="45.64029" lon="24.33773">
    <ele>482.34000000000003</ele>
   </trkpt>
   <trkpt lat="45.63989" lon="24.33751">
    <ele>484.64</ele>
   </trkpt>
   <trkpt lat="45.639880000000005" lon="24.33751">
    <ele>484.69000000000005</ele>
   </trkpt>
   <trkpt lat="45.63965" lon="24.337470000000003">
    <ele>486.12000000000006</ele>
   </trkpt>
   <trkpt lat="45.63949" lon="24.337480000000003">
    <ele>486.93</ele>
   </trkpt>
   <trkpt lat="45.63901500016157" lon="24.337580000822904">
    <ele>488.37</ele>
   </trkpt>
   <trkpt lat="45.638540000000006" lon="24.337680000000002">
    <ele>489.92</ele>
   </trkpt>
   <trkpt lat="45.63841" lon="24.337740000000004">
    <ele>490.2</ele>
   </trkpt>
   <trkpt lat="45.63798000055669" lon="24.338140003200998">
    <ele>491.57000000000005</ele>
   </trkpt>
   <trkpt lat="45.637550000000005" lon="24.338540000000002">
    <ele>492.63000000000005</ele>
   </trkpt>
   <trkpt lat="45.63712" lon="24.338680000000004">
    <ele>495.68000000000006</ele>
   </trkpt>
   <trkpt lat="45.63687" lon="24.338630000000002">
    <ele>496.28000000000003</ele>
   </trkpt>
   <trkpt lat="45.636570000000006" lon="24.338630000000002">
    <ele>495.7900000000001</ele>
   </trkpt>
   <trkpt lat="45.63642" lon="24.33858">
    <ele>495.70000000000005</ele>
   </trkpt>
   <trkpt lat="45.63615" lon="24.33845">
    <ele>496.22</ele>
   </trkpt>
   <trkpt lat="45.636030000000005" lon="24.338430000000002">
    <ele>496.52</ele>
   </trkpt>
   <trkpt lat="45.635960000000004" lon="24.33846">
    <ele>496.87</ele>
   </trkpt>
   <trkpt lat="45.635470000000005" lon="24.338890000000003">
    <ele>500.6400000000001</ele>
   </trkpt>
   <trkpt lat="45.63537" lon="24.33903">
    <ele>502.77000000000004</ele>
   </trkpt>
   <trkpt lat="45.635250000000006" lon="24.33939">
    <ele>504.6700000000001</ele>
   </trkpt>
   <trkpt lat="45.63515" lon="24.339560000000002">
    <ele>505.38000000000005</ele>
   </trkpt>
   <trkpt lat="45.634750000000004" lon="24.33988">
    <ele>505.7900000000001</ele>
   </trkpt>
   <trkpt lat="45.63465" lon="24.339920000000003">
    <ele>505.82000000000005</ele>
   </trkpt>
   <trkpt lat="45.63438000000001" lon="24.339910000000003">
    <ele>506.77000000000004</ele>
   </trkpt>
   <trkpt lat="45.634190000000004" lon="24.339940000000002">
    <ele>507.36</ele>
   </trkpt>
   <trkpt lat="45.633700000000005" lon="24.340110000000003">
    <ele>510.9600000000001</ele>
   </trkpt>
   <trkpt lat="45.63356" lon="24.340120000000002">
    <ele>512.02</ele>
   </trkpt>
   <trkpt lat="45.633" lon="24.340280000000003">
    <ele>514.87</ele>
   </trkpt>
   <trkpt lat="45.632720000000006" lon="24.340390000000003">
    <ele>516.51</ele>
   </trkpt>
   <trkpt lat="45.63241000000001" lon="24.340600000000002">
    <ele>517.46</ele>
   </trkpt>
   <trkpt lat="45.63224" lon="24.340660000000003">
    <ele>519.93</ele>
   </trkpt>
   <trkpt lat="45.6319" lon="24.340670000000003">
    <ele>521.34</ele>
   </trkpt>
   <trkpt lat="45.631660000000004" lon="24.34074">
    <ele>522.12</ele>
   </trkpt>
   <trkpt lat="45.631420000000006" lon="24.340880000000002">
    <ele>522.19</ele>
   </trkpt>
   <trkpt lat="45.63112" lon="24.34118">
    <ele>521.51</ele>
   </trkpt>
   <trkpt lat="45.631080000000004" lon="24.341320000000003">
    <ele>520.81</ele>
   </trkpt>
   <trkpt lat="45.63105" lon="24.341780000000004">
    <ele>520.3800000000001</ele>
   </trkpt>
   <trkpt lat="45.63102000000001" lon="24.341820000000002">
    <ele>520.5300000000001</ele>
   </trkpt>
   <trkpt lat="45.63098" lon="24.341910000000002">
    <ele>520.7700000000001</ele>
   </trkpt>
   <trkpt lat="45.630520000000004" lon="24.34224">
    <ele>526.52</ele>
   </trkpt>
   <trkpt lat="45.63035000000001" lon="24.342380000000002">
    <ele>529.3</ele>
   </trkpt>
   <trkpt lat="45.630210000000005" lon="24.342630000000003">
    <ele>531.64</ele>
   </trkpt>
   <trkpt lat="45.630030000000005" lon="24.34279">
    <ele>533.27</ele>
   </trkpt>
   <trkpt lat="45.6298" lon="24.342930000000003">
    <ele>534.5600000000001</ele>
   </trkpt>
   <trkpt lat="45.62962" lon="24.34298">
    <ele>535.73</ele>
   </trkpt>
   <trkpt lat="45.628960000000006" lon="24.343000000000004">
    <ele>540.0</ele>
   </trkpt>
   <trkpt lat="45.62877" lon="24.34305">
    <ele>540.75</ele>
   </trkpt>
   <trkpt lat="45.628620000000005" lon="24.34318">
    <ele>542.0</ele>
   </trkpt>
   <trkpt lat="45.62839" lon="24.343310000000002">
    <ele>544.1</ele>
   </trkpt>
   <trkpt lat="45.62829000000001" lon="24.343410000000002">
    <ele>545.2600000000001</ele>
   </trkpt>
   <trkpt lat="45.62801" lon="24.3439">
    <ele>548.1600000000001</ele>
   </trkpt>
   <trkpt lat="45.62769" lon="24.34421">
    <ele>549.5600000000001</ele>
   </trkpt>
   <trkpt lat="45.62733" lon="24.34486">
    <ele>552.6600000000001</ele>
   </trkpt>
   <trkpt lat="45.627100000000006" lon="24.34512">
    <ele>553.97</ele>
   </trkpt>
   <trkpt lat="45.62650000000001" lon="24.345480000000002">
    <ele>556.27</ele>
   </trkpt>
   <trkpt lat="45.626360000000005" lon="24.345640000000003">
    <ele>558.22</ele>
   </trkpt>
   <trkpt lat="45.62613" lon="24.34615">
    <ele>561.85</ele>
   </trkpt>
   <trkpt lat="45.625775002176354" lon="24.34684500426568">
    <ele>566.3100000000001</ele>
   </trkpt>
   <trkpt lat="45.625420000000005" lon="24.347540000000002">
    <ele>571.98</ele>
   </trkpt>
   <trkpt lat="45.62501" lon="24.348190000000002">
    <ele>577.11</ele>
   </trkpt>
   <trkpt lat="45.624550000000006" lon="24.34869">
    <ele>579.77</ele>
   </trkpt>
   <trkpt lat="45.624340000000004" lon="24.34881">
    <ele>582.31</ele>
   </trkpt>
   <trkpt lat="45.62425" lon="24.348910000000004">
    <ele>582.95</ele>
   </trkpt>
   <trkpt lat="45.62407" lon="24.34928">
    <ele>583.55</ele>
   </trkpt>
   <trkpt lat="45.62384" lon="24.34944">
    <ele>584.3900000000001</ele>
   </trkpt>
   <trkpt lat="45.62362" lon="24.34954">
    <ele>584.86</ele>
   </trkpt>
   <trkpt lat="45.62355" lon="24.349580000000003">
    <ele>585.2900000000001</ele>
   </trkpt>
   <trkpt lat="45.623430000000006" lon="24.349590000000003">
    <ele>586.32</ele>
   </trkpt>
   <trkpt lat="45.62324" lon="24.349680000000003">
    <ele>588.21</ele>
   </trkpt>
   <trkpt lat="45.6227" lon="24.349680000000003">
    <ele>599.8</ele>
   </trkpt>
   <trkpt lat="45.622330000000005" lon="24.34946">
    <ele>607.04</ele>
   </trkpt>
   <trkpt lat="45.621790000000004" lon="24.34934">
    <ele>617.41</ele>
   </trkpt>
   <trkpt lat="45.62133500024391" lon="24.349199998912585">
    <ele>622.0600000000001</ele>
   </trkpt>
   <trkpt lat="45.62088000000001" lon="24.34906">
    <ele>627.7600000000001</ele>
   </trkpt>
   <trkpt lat="45.62062" lon="24.348860000000002">
    <ele>632.87</ele>
   </trkpt>
   <trkpt lat="45.620110000000004" lon="24.34881">
    <ele>642.22</ele>
   </trkpt>
   <trkpt lat="45.619510000000005" lon="24.348450000000003">
    <ele>652.2600000000001</ele>
   </trkpt>
   <trkpt lat="45.61905" lon="24.34852">
    <ele>657.84</ele>
   </trkpt>
   <trkpt lat="45.61891000000001" lon="24.3484">
    <ele>658.7900000000001</ele>
   </trkpt>
   <trkpt lat="45.6186" lon="24.348350000000003">
    <ele>661.85</ele>
   </trkpt>
   <trkpt lat="45.618080000000006" lon="24.348000000000003">
    <ele>668.9600000000002</ele>
   </trkpt>
   <trkpt lat="45.617640000019975" lon="24.347854998838564">
    <ele>671.0600000000001</ele>
   </trkpt>
   <trkpt lat="45.617200000000004" lon="24.347710000000003">
    <ele>675.76</ele>
   </trkpt>
   <trkpt lat="45.616910000000004" lon="24.34757">
    <ele>676.9300000000001</ele>
   </trkpt>
   <trkpt lat="45.61614" lon="24.34738">
    <ele>682.18</ele>
   </trkpt>
   <trkpt lat="45.615930000000006" lon="24.34739">
    <ele>684.4300000000001</ele>
   </trkpt>
   <trkpt lat="45.615680000000005" lon="24.347250000000003">
    <ele>687.76</ele>
   </trkpt>
   <trkpt lat="45.61563" lon="24.346870000000003">
    <ele>690.88</ele>
   </trkpt>
   <trkpt lat="45.615570000000005" lon="24.346790000000002">
    <ele>691.7800000000001</ele>
   </trkpt>
   <trkpt lat="45.615390000000005" lon="24.34655">
    <ele>695.84</ele>
   </trkpt>
   <trkpt lat="45.614760000000004" lon="24.34653">
    <ele>699.6500000000001</ele>
   </trkpt>
   <trkpt lat="45.61435" lon="24.346230000000002">
    <ele>704.73</ele>
   </trkpt>
   <trkpt lat="45.61401" lon="24.34559">
    <ele>710.98</ele>
   </trkpt>
   <trkpt lat="45.613530000000004" lon="24.34542">
    <ele>716.6600000000001</ele>
   </trkpt>
   <trkpt lat="45.61336000000001" lon="24.345470000000002">
    <ele>718.26</ele>
   </trkpt>
   <trkpt lat="45.61323" lon="24.3456">
    <ele>719.16</ele>
   </trkpt>
   <trkpt lat="45.61309000000001" lon="24.3456">
    <ele>720.34</ele>
   </trkpt>
   <trkpt lat="45.612700000000004" lon="24.3455">
    <ele>723.8100000000001</ele>
   </trkpt>
   <trkpt lat="45.61216000035843" lon="24.34520499714805">
    <ele>731.53</ele>
   </trkpt>
   <trkpt lat="45.61162" lon="24.344910000000002">
    <ele>742.8800000000001</ele>
   </trkpt>
   <trkpt lat="45.611450000000005" lon="24.344900000000003">
    <ele>750.96</ele>
   </trkpt>
   <trkpt lat="45.61135" lon="24.34495">
    <ele>754.41</ele>
   </trkpt>
   <trkpt lat="45.611250000000005" lon="24.34513">
    <ele>760.5500000000001</ele>
   </trkpt>
   <trkpt lat="45.611230000000006" lon="24.3453">
    <ele>767.5</ele>
   </trkpt>
   <trkpt lat="45.61135" lon="24.345740000000003">
    <ele>777.6800000000001</ele>
   </trkpt>
   <trkpt lat="45.612030000000004" lon="24.346570000000003">
    <ele>807.6700000000001</ele>
   </trkpt>
   <trkpt lat="45.611740000000005" lon="24.347080000000002">
    <ele>813.74</ele>
   </trkpt>
   <trkpt lat="45.61159000000001" lon="24.3473">
    <ele>818.59</ele>
   </trkpt>
   <trkpt lat="45.61150000000001" lon="24.347350000000002">
    <ele>822.5600000000001</ele>
   </trkpt>
   <trkpt lat="45.611470000000004" lon="24.34738">
    <ele>822.45</ele>
   </trkpt>
   <trkpt lat="45.6114" lon="24.347130000000003">
    <ele>836.3600000000001</ele>
   </trkpt>
   <trkpt lat="45.611070000000005" lon="24.347030000000004">
    <ele>844.3900000000001</ele>
   </trkpt>
   <trkpt lat="45.610820000000004" lon="24.347160000000002">
    <ele>858.25</ele>
   </trkpt>
   <trkpt lat="45.61077" lon="24.347550000000002">
    <ele>868.13</ele>
   </trkpt>
   <trkpt lat="45.610620000000004" lon="24.34759">
    <ele>873.0300000000001</ele>
   </trkpt>
   <trkpt lat="45.610510000000005" lon="24.347790000000003">
    <ele>877.74</ele>
   </trkpt>
   <trkpt lat="45.61039" lon="24.347500000000004">
    <ele>883.59</ele>
   </trkpt>
   <trkpt lat="45.610260000000004" lon="24.347700000000003">
    <ele>897.2700000000001</ele>
   </trkpt>
   <trkpt lat="45.61012" lon="24.34766">
    <ele>902.61</ele>
   </trkpt>
   <trkpt lat="45.61007" lon="24.347820000000002">
    <ele>905.84</ele>
   </trkpt>
   <trkpt lat="45.60983" lon="24.348010000000002">
    <ele>915.33</ele>
   </trkpt>
   <trkpt lat="45.60972" lon="24.34777">
    <ele>926.1100000000001</ele>
   </trkpt>
   <trkpt lat="45.60942000000001" lon="24.34784">
    <ele>936.2600000000001</ele>
   </trkpt>
   <trkpt lat="45.60911" lon="24.347540000000002">
    <ele>954.98</ele>
   </trkpt>
   <trkpt lat="45.608850000000004" lon="24.347550000000002">
    <ele>961.94</ele>
   </trkpt>
   <trkpt lat="45.608700000000006" lon="24.347900000000003">
    <ele>975.59</ele>
   </trkpt>
   <trkpt lat="45.60819" lon="24.348080000000003">
    <ele>989.22</ele>
   </trkpt>
   <trkpt lat="45.60758000001398" lon="24.348054999728596">
    <ele>1007.5100000000001</ele>
   </trkpt>
   <trkpt lat="45.606970000000004" lon="24.34803">
    <ele>1028.68</ele>
   </trkpt>
   <trkpt lat="45.606350000000006" lon="24.34748">
    <ele>1042.27</ele>
   </trkpt>
   <trkpt lat="45.60596" lon="24.347440000000002">
    <ele>1055.5700000000002</ele>
   </trkpt>
   <trkpt lat="45.60569" lon="24.34728">
    <ele>1062.24</ele>
   </trkpt>
   <trkpt lat="45.60531" lon="24.34729">
    <ele>1066.13</ele>
   </trkpt>
   <trkpt lat="45.60511" lon="24.347550000000002">
    <ele>1071.3400000000001</ele>
   </trkpt>
   <trkpt lat="45.604760000000006" lon="24.34793">
    <ele>1080.18</ele>
   </trkpt>
   <trkpt lat="45.60432000038039" lon="24.34825500260841">
    <ele>1095.3300000000002</ele>
   </trkpt>
   <trkpt lat="45.603880000000004" lon="24.348580000000002">
    <ele>1105.28</ele>
   </trkpt>
   <trkpt lat="45.60363" lon="24.3484">
    <ele>1109.9</ele>
   </trkpt>
   <trkpt lat="45.60338" lon="24.348250000000004">
    <ele>1116.89</ele>
   </trkpt>
   <trkpt lat="45.60322" lon="24.347980000000003">
    <ele>1119.14</ele>
   </trkpt>
   <trkpt lat="45.603080000000006" lon="24.34793">
    <ele>1121.55</ele>
   </trkpt>
   <trkpt lat="45.60263500239013" lon="24.348675005961276">
    <ele>1137.24</ele>
   </trkpt>
   <trkpt lat="45.60219" lon="24.349420000000002">
    <ele>1159.76</ele>
   </trkpt>
   <trkpt lat="45.60224" lon="24.349940000000004">
    <ele>1175.3600000000001</ele>
   </trkpt>
   <trkpt lat="45.602410000000006" lon="24.350360000000002">
    <ele>1186.35</ele>
   </trkpt>
   <trkpt lat="45.60224" lon="24.35122">
    <ele>1202.3600000000001</ele>
   </trkpt>
   <trkpt lat="45.60198000207041" lon="24.351910003214886">
    <ele>1220.0000000000002</ele>
   </trkpt>
   <trkpt lat="45.60172" lon="24.352600000000002">
    <ele>1231.27</ele>
   </trkpt>
   <trkpt lat="45.601600000000005" lon="24.353790000000004">
    <ele>1249.3100000000002</ele>
   </trkpt>
   <trkpt lat="45.60126" lon="24.354370000000003">
    <ele>1253.06</ele>
   </trkpt>
   <trkpt lat="45.60082667586616" lon="24.355396682517725">
    <ele>1263.0800000000002</ele>
   </trkpt>
   <trkpt lat="45.600393342535924" lon="24.356423349176776">
    <ele>1265.94</ele>
   </trkpt>
   <trkpt lat="45.59996" lon="24.357450000000004">
    <ele>1263.5500000000002</ele>
   </trkpt>
   <trkpt lat="45.599450000000004" lon="24.35791">
    <ele>1268.63</ele>
   </trkpt>
   <trkpt lat="45.599150000932035" lon="24.35841500300387">
    <ele>1269.44</ele>
   </trkpt>
   <trkpt lat="45.598850000000006" lon="24.35892">
    <ele>1268.81</ele>
   </trkpt>
   <trkpt lat="45.59897" lon="24.3592">
    <ele>1272.0900000000001</ele>
   </trkpt>
   <trkpt lat="45.59861" lon="24.359530000000003">
    <ele>1281.69</ele>
   </trkpt>
   <trkpt lat="45.598560000000006" lon="24.35979">
    <ele>1286.92</ele>
   </trkpt>
   <trkpt lat="45.597970000000004" lon="24.36071">
    <ele>1296.24</ele>
   </trkpt>
   <trkpt lat="45.59761" lon="24.36118">
    <ele>1310.95</ele>
   </trkpt>
   <trkpt lat="45.59736" lon="24.36176">
    <ele>1324.06</ele>
   </trkpt>
   <trkpt lat="45.596810000000005" lon="24.362420000000004">
    <ele>1336.71</ele>
   </trkpt>
   <trkpt lat="45.59666000000001" lon="24.363090000000003">
    <ele>1340.3700000000001</ele>
   </trkpt>
   <trkpt lat="45.596720000000005" lon="24.36354">
    <ele>1340.88</ele>
   </trkpt>
   <trkpt lat="45.59691" lon="24.36391">
    <ele>1344.63</ele>
   </trkpt>
   <trkpt lat="45.59691" lon="24.36399">
    <ele>1345.6800000000003</ele>
   </trkpt>
   <trkpt lat="45.59685" lon="24.36418">
    <ele>1349.15</ele>
   </trkpt>
   <trkpt lat="45.59676" lon="24.36419">
    <ele>1353.1399999999999</ele>
   </trkpt>
   <trkpt lat="45.59629" lon="24.36335">
    <ele>1365.8600000000001</ele>
   </trkpt>
   <trkpt lat="45.59615" lon="24.36277">
    <ele>1377.39</ele>
   </trkpt>
   <trkpt lat="45.59616500213614" lon="24.36207000025387">
    <ele>1391.42</ele>
   </trkpt>
   <trkpt lat="45.596180000000004" lon="24.36137">
    <ele>1400.14</ele>
   </trkpt>
   <trkpt lat="45.59601000000001" lon="24.361250000000002">
    <ele>1405.81</ele>
   </trkpt>
   <trkpt lat="45.595740000000006" lon="24.36135">
    <ele>1417.03</ele>
   </trkpt>
   <trkpt lat="45.595420000000004" lon="24.361670000000004">
    <ele>1423.7</ele>
   </trkpt>
   <trkpt lat="45.59514" lon="24.36192">
    <ele>1433.66</ele>
   </trkpt>
   <trkpt lat="45.59494" lon="24.361960000000003">
    <ele>1440.42</ele>
   </trkpt>
   <trkpt lat="45.594590000000004" lon="24.362240000000003">
    <ele>1455.03</ele>
   </trkpt>
   <trkpt lat="45.59434" lon="24.36268">
    <ele>1465.5900000000001</ele>
   </trkpt>
   <trkpt lat="45.594100000000005" lon="24.36269">
    <ele>1473.18</ele>
   </trkpt>
   <trkpt lat="45.593720000000005" lon="24.36316">
    <ele>1484.8300000000002</ele>
   </trkpt>
   <trkpt lat="45.59329" lon="24.36332">
    <ele>1497.7</ele>
   </trkpt>
   <trkpt lat="45.59322" lon="24.36326">
    <ele>1500.67</ele>
   </trkpt>
   <trkpt lat="45.59284" lon="24.363210000000002">
    <ele>1511.23</ele>
   </trkpt>
   <trkpt lat="45.5925" lon="24.36373">
    <ele>1524.6000000000001</ele>
   </trkpt>
   <trkpt lat="45.592235001353174" lon="24.364295002751806">
    <ele>1538.2000000000003</ele>
   </trkpt>
   <trkpt lat="45.59197" lon="24.364860000000004">
    <ele>1548.7400000000002</ele>
   </trkpt>
   <trkpt lat="45.5919" lon="24.365900000000003">
    <ele>1568.45</ele>
   </trkpt>
   <trkpt lat="45.591730000000005" lon="24.366270000000004">
    <ele>1580.9400000000003</ele>
   </trkpt>
   <trkpt lat="45.59143" lon="24.366110000000003">
    <ele>1587.25</ele>
   </trkpt>
   <trkpt lat="45.591190000000005" lon="24.365740000000002">
    <ele>1596.94</ele>
   </trkpt>
   <trkpt lat="45.590860000000006" lon="24.365350000000003">
    <ele>1609.8700000000001</ele>
   </trkpt>
   <trkpt lat="45.59066000000001" lon="24.3653">
    <ele>1612.65</ele>
   </trkpt>
   <trkpt lat="45.590630000000004" lon="24.365620000000003">
    <ele>1622.14</ele>
   </trkpt>
   <trkpt lat="45.59044" lon="24.365750000000002">
    <ele>1624.0</ele>
   </trkpt>
   <trkpt lat="45.590030000000006" lon="24.365900000000003">
    <ele>1626.88</ele>
   </trkpt>
   <trkpt lat="45.589620000000004" lon="24.366190000000003">
    <ele>1630.48</ele>
   </trkpt>
   <trkpt lat="45.589200000000005" lon="24.366570000000003">
    <ele>1632.5200000000002</ele>
   </trkpt>
   <trkpt lat="45.58878000000001" lon="24.36673">
    <ele>1633.0700000000002</ele>
   </trkpt>
   <trkpt lat="45.588150000000006" lon="24.366460000000004">
    <ele>1637.5100000000002</ele>
   </trkpt>
   <trkpt lat="45.58767" lon="24.36645">
    <ele>1643.8100000000002</ele>
   </trkpt>
   <trkpt lat="45.58757000000001" lon="24.366490000000002">
    <ele>1644.03</ele>
   </trkpt>
   <trkpt lat="45.58757000000001" lon="24.366500000000002">
    <ele>1644.03</ele>
   </trkpt>
   <trkpt lat="45.58738" lon="24.366600000000002">
    <ele>1645.1100000000001</ele>
   </trkpt>
   <trkpt lat="45.587210000000006" lon="24.36652">
    <ele>1646.8500000000001</ele>
   </trkpt>
   <trkpt lat="45.58695" lon="24.36652">
    <ele>1648.0100000000002</ele>
   </trkpt>
   <trkpt lat="45.586690000000004" lon="24.36636">
    <ele>1649.0000000000002</ele>
   </trkpt>
   <trkpt lat="45.58652000000001" lon="24.36634">
    <ele>1649.39</ele>
   </trkpt>
   <trkpt lat="45.58626" lon="24.366460000000004">
    <ele>1649.7400000000002</ele>
   </trkpt>
   <trkpt lat="45.58607000000001" lon="24.366400000000002">
    <ele>1649.68</ele>
   </trkpt>
   <trkpt lat="45.5859" lon="24.36624">
    <ele>1648.47</ele>
   </trkpt>
   <trkpt lat="45.58568" lon="24.36579">
    <ele>1646.88</ele>
   </trkpt>
   <trkpt lat="45.585570000000004" lon="24.365180000000002">
    <ele>1644.9900000000002</ele>
   </trkpt>
   <trkpt lat="45.585570000000004" lon="24.36474">
    <ele>1642.7600000000002</ele>
   </trkpt>
   <trkpt lat="45.58540000000001" lon="24.364520000000002">
    <ele>1641.4</ele>
   </trkpt>
   <trkpt lat="45.5852" lon="24.36436">
    <ele>1638.9600000000003</ele>
   </trkpt>
   <trkpt lat="45.585370000000005" lon="24.364870000000003">
    <ele>1643.93</ele>
   </trkpt>
   <trkpt lat="45.585350000000005" lon="24.36549">
    <ele>1646.8700000000001</ele>
   </trkpt>
   <trkpt lat="45.585420000000006" lon="24.365730000000003">
    <ele>1646.9900000000002</ele>
   </trkpt>
   <trkpt lat="45.585460000000005" lon="24.366120000000002">
    <ele>1646.8200000000002</ele>
   </trkpt>
   <trkpt lat="45.585440000000006" lon="24.366400000000002">
    <ele>1648.3500000000001</ele>
   </trkpt>
   <trkpt lat="45.58538" lon="24.366850000000003">
    <ele>1652.74</ele>
   </trkpt>
   <trkpt lat="45.585370000000005" lon="24.367140000000003">
    <ele>1656.3500000000001</ele>
   </trkpt>
   <trkpt lat="45.58543" lon="24.36745">
    <ele>1660.2400000000002</ele>
   </trkpt>
   <trkpt lat="45.58531000000001" lon="24.36792">
    <ele>1664.9600000000003</ele>
   </trkpt>
   <trkpt lat="45.58513000000001" lon="24.36833">
    <ele>1671.76</ele>
   </trkpt>
   <trkpt lat="45.585040000000006" lon="24.36861">
    <ele>1675.89</ele>
   </trkpt>
   <trkpt lat="45.58498" lon="24.3687">
    <ele>1678.93</ele>
   </trkpt>
   <trkpt lat="45.58482" lon="24.36923">
    <ele>1686.8400000000001</ele>
   </trkpt>
   <trkpt lat="45.58466500160072" lon="24.36985500214238">
    <ele>1695.78</ele>
   </trkpt>
   <trkpt lat="45.58451" lon="24.37048">
    <ele>1707.8700000000001</ele>
   </trkpt>
   <trkpt lat="45.584450000000004" lon="24.370800000000003">
    <ele>1712.01</ele>
   </trkpt>
   <trkpt lat="45.58438" lon="24.371000000000002">
    <ele>1713.38</ele>
   </trkpt>
   <trkpt lat="45.58403500205381" lon="24.371670003931918">
    <ele>1714.67</ele>
   </trkpt>
   <trkpt lat="45.583690000000004" lon="24.37234">
    <ele>1720.22</ele>
   </trkpt>
   <trkpt lat="45.58361" lon="24.373310000000004">
    <ele>1721.3100000000002</ele>
   </trkpt>
   <trkpt lat="45.583540000000006" lon="24.373780000000004">
    <ele>1721.54</ele>
   </trkpt>
   <trkpt lat="45.583360000000006" lon="24.374540000000003">
    <ele>1722.16</ele>
   </trkpt>
   <trkpt lat="45.58305000000001" lon="24.375420000000002">
    <ele>1724.25</ele>
   </trkpt>
   <trkpt lat="45.583000000000006" lon="24.37561">
    <ele>1724.65</ele>
   </trkpt>
   <trkpt lat="45.58305000000001" lon="24.375420000000002">
    <ele>1724.25</ele>
   </trkpt>
   <trkpt lat="45.583360000000006" lon="24.374540000000003">
    <ele>1722.16</ele>
   </trkpt>
   <trkpt lat="45.583540000000006" lon="24.373780000000004">
    <ele>1720.91</ele>
   </trkpt>
   <trkpt lat="45.58361" lon="24.373310000000004">
    <ele>1721.3100000000002</ele>
   </trkpt>
   <trkpt lat="45.583690000000004" lon="24.37234">
    <ele>1720.22</ele>
   </trkpt>
   <trkpt lat="45.584035001862766" lon="24.371670004302935">
    <ele>1714.67</ele>
   </trkpt>
   <trkpt lat="45.58438" lon="24.371000000000002">
    <ele>1712.6100000000001</ele>
   </trkpt>
   <trkpt lat="45.584450000000004" lon="24.370800000000003">
    <ele>1712.01</ele>
   </trkpt>
   <trkpt lat="45.58451" lon="24.37048">
    <ele>1707.8700000000001</ele>
   </trkpt>
   <trkpt lat="45.58466500180742" lon="24.369855001308924">
    <ele>1694.73</ele>
   </trkpt>
   <trkpt lat="45.58482" lon="24.36923">
    <ele>1686.8400000000001</ele>
   </trkpt>
   <trkpt lat="45.58498" lon="24.3687">
    <ele>1675.89</ele>
   </trkpt>
   <trkpt lat="45.585040000000006" lon="24.36861">
    <ele>1675.89</ele>
   </trkpt>
   <trkpt lat="45.58513000000001" lon="24.36833">
    <ele>1671.76</ele>
   </trkpt>
   <trkpt lat="45.58531000000001" lon="24.36792">
    <ele>1664.9600000000003</ele>
   </trkpt>
   <trkpt lat="45.58543" lon="24.36745">
    <ele>1660.2400000000002</ele>
   </trkpt>
   <trkpt lat="45.585370000000005" lon="24.367140000000003">
    <ele>1654.1100000000001</ele>
   </trkpt>
   <trkpt lat="45.58538" lon="24.366850000000003">
    <ele>1651.49</ele>
   </trkpt>
   <trkpt lat="45.585440000000006" lon="24.366400000000002">
    <ele>1647.93</ele>
   </trkpt>
   <trkpt lat="45.585460000000005" lon="24.366120000000002">
    <ele>1646.8200000000002</ele>
   </trkpt>
   <trkpt lat="45.585420000000006" lon="24.365730000000003">
    <ele>1646.9900000000002</ele>
   </trkpt>
   <trkpt lat="45.585350000000005" lon="24.36549">
    <ele>1646.8700000000001</ele>
   </trkpt>
   <trkpt lat="45.585370000000005" lon="24.364870000000003">
    <ele>1643.93</ele>
   </trkpt>
   <trkpt lat="45.5852" lon="24.36436">
    <ele>1638.9600000000003</ele>
   </trkpt>
   <trkpt lat="45.584770000000006" lon="24.363270000000004">
    <ele>1624.47</ele>
   </trkpt>
   <trkpt lat="45.584770000000006" lon="24.36326">
    <ele>1624.3700000000001</ele>
   </trkpt>
   <trkpt lat="45.58465" lon="24.36296">
    <ele>1621.8400000000001</ele>
   </trkpt>
   <trkpt lat="45.58457000000001" lon="24.36266">
    <ele>1620.3400000000001</ele>
   </trkpt>
   <trkpt lat="45.584540000000004" lon="24.36241">
    <ele>1618.0</ele>
   </trkpt>
   <trkpt lat="45.58462" lon="24.36164">
    <ele>1606.72</ele>
   </trkpt>
   <trkpt lat="45.58476000215472" lon="24.36093000199571">
    <ele>1595.8700000000001</ele>
   </trkpt>
   <trkpt lat="45.584900000000005" lon="24.36022">
    <ele>1588.03</ele>
   </trkpt>
   <trkpt lat="45.58507" lon="24.359810000000003">
    <ele>1585.28</ele>
   </trkpt>
   <trkpt lat="45.5852" lon="24.359370000000002">
    <ele>1582.17</ele>
   </trkpt>
   <trkpt lat="45.58514" lon="24.359090000000002">
    <ele>1578.57</ele>
   </trkpt>
   <trkpt lat="45.58513000000001" lon="24.35884">
    <ele>1577.0400000000002</ele>
   </trkpt>
   <trkpt lat="45.584990000000005" lon="24.358340000000002">
    <ele>1570.9700000000003</ele>
   </trkpt>
   <trkpt lat="45.58496" lon="24.358020000000003">
    <ele>1566.8000000000002</ele>
   </trkpt>
   <trkpt lat="45.58513000000001" lon="24.357010000000002">
    <ele>1555.1000000000001</ele>
   </trkpt>
   <trkpt lat="45.585370000000005" lon="24.356430000000003">
    <ele>1552.6000000000001</ele>
   </trkpt>
   <trkpt lat="45.58545" lon="24.356160000000003">
    <ele>1550.16</ele>
   </trkpt>
   <trkpt lat="45.58572" lon="24.355710000000002">
    <ele>1549.67</ele>
   </trkpt>
   <trkpt lat="45.585980000000006" lon="24.355430000000002">
    <ele>1551.65</ele>
   </trkpt>
   <trkpt lat="45.58614" lon="24.355220000000003">
    <ele>1553.8200000000002</ele>
   </trkpt>
   <trkpt lat="45.586310000000005" lon="24.354960000000002">
    <ele>1555.1000000000001</ele>
   </trkpt>
   <trkpt lat="45.58637" lon="24.354830000000003">
    <ele>1553.9600000000003</ele>
   </trkpt>
   <trkpt lat="45.58648" lon="24.354680000000002">
    <ele>1551.2400000000002</ele>
   </trkpt>
   <trkpt lat="45.58664" lon="24.354580000000002">
    <ele>1544.34</ele>
   </trkpt>
   <trkpt lat="45.586690000000004" lon="24.35441">
    <ele>1544.34</ele>
   </trkpt>
   <trkpt lat="45.58684" lon="24.35413">
    <ele>1537.83</ele>
   </trkpt>
   <trkpt lat="45.58690000000001" lon="24.35397">
    <ele>1535.3300000000002</ele>
   </trkpt>
   <trkpt lat="45.58704" lon="24.353810000000003">
    <ele>1532.21</ele>
   </trkpt>
   <trkpt lat="45.58719000000001" lon="24.353530000000003">
    <ele>1528.8000000000002</ele>
   </trkpt>
   <trkpt lat="45.587230000000005" lon="24.353350000000002">
    <ele>1527.5100000000002</ele>
   </trkpt>
   <trkpt lat="45.587300000000006" lon="24.35328">
    <ele>1526.51</ele>
   </trkpt>
   <trkpt lat="45.5874" lon="24.353260000000002">
    <ele>1525.95</ele>
   </trkpt>
   <trkpt lat="45.58782" lon="24.352680000000003">
    <ele>1513.4900000000002</ele>
   </trkpt>
   <trkpt lat="45.587990000000005" lon="24.352290000000004">
    <ele>1505.3700000000001</ele>
   </trkpt>
   <trkpt lat="45.588" lon="24.352120000000003">
    <ele>1499.18</ele>
   </trkpt>
   <trkpt lat="45.58803" lon="24.35198">
    <ele>1494.6200000000001</ele>
   </trkpt>
   <trkpt lat="45.58816" lon="24.351850000000002">
    <ele>1491.67</ele>
   </trkpt>
   <trkpt lat="45.58827" lon="24.351640000000003">
    <ele>1484.3600000000001</ele>
   </trkpt>
   <trkpt lat="45.588260000000005" lon="24.351580000000002">
    <ele>1484.3600000000001</ele>
   </trkpt>
   <trkpt lat="45.58832" lon="24.351440000000004">
    <ele>1484.3600000000001</ele>
   </trkpt>
   <trkpt lat="45.588420000000006" lon="24.351370000000003">
    <ele>1484.3600000000001</ele>
   </trkpt>
   <trkpt lat="45.58854" lon="24.351090000000003">
    <ele>1464.3100000000002</ele>
   </trkpt>
   <trkpt lat="45.58865" lon="24.351010000000002">
    <ele>1464.3100000000002</ele>
   </trkpt>
   <trkpt lat="45.58883" lon="24.350980000000003">
    <ele>1450.96</ele>
   </trkpt>
   <trkpt lat="45.588950000000004" lon="24.350880000000004">
    <ele>1450.96</ele>
   </trkpt>
   <trkpt lat="45.58928" lon="24.350510000000003">
    <ele>1439.1299999999999</ele>
   </trkpt>
   <trkpt lat="45.589420000000004" lon="24.350430000000003">
    <ele>1437.1200000000001</ele>
   </trkpt>
   <trkpt lat="45.58959" lon="24.350420000000003">
    <ele>1432.5500000000002</ele>
   </trkpt>
   <trkpt lat="45.589710000000004" lon="24.350340000000003">
    <ele>1430.44</ele>
   </trkpt>
   <trkpt lat="45.58982" lon="24.350360000000002">
    <ele>1425.7700000000002</ele>
   </trkpt>
   <trkpt lat="45.58988" lon="24.350330000000003">
    <ele>1425.7700000000002</ele>
   </trkpt>
   <trkpt lat="45.589920000000006" lon="24.350170000000002">
    <ele>1423.51</ele>
   </trkpt>
   <trkpt lat="45.59" lon="24.350130000000004">
    <ele>1423.51</ele>
   </trkpt>
   <trkpt lat="45.590070000000004" lon="24.350170000000002">
    <ele>1416.14</ele>
   </trkpt>
   <trkpt lat="45.590210000000006" lon="24.35003">
    <ele>1414.17</ele>
   </trkpt>
   <trkpt lat="45.590300000000006" lon="24.349870000000003">
    <ele>1413.25</ele>
   </trkpt>
   <trkpt lat="45.59031" lon="24.349770000000003">
    <ele>1409.8000000000002</ele>
   </trkpt>
   <trkpt lat="45.59051" lon="24.34964">
    <ele>1405.75</ele>
   </trkpt>
   <trkpt lat="45.5906" lon="24.349670000000003">
    <ele>1401.0900000000001</ele>
   </trkpt>
   <trkpt lat="45.59069" lon="24.34964">
    <ele>1401.0900000000001</ele>
   </trkpt>
   <trkpt lat="45.59075000000001" lon="24.349520000000002">
    <ele>1399.9800000000002</ele>
   </trkpt>
   <trkpt lat="45.59073" lon="24.34936">
    <ele>1394.73</ele>
   </trkpt>
   <trkpt lat="45.59066000000001" lon="24.349320000000002">
    <ele>1394.73</ele>
   </trkpt>
   <trkpt lat="45.590590000000006" lon="24.349200000000003">
    <ele>1391.43</ele>
   </trkpt>
   <trkpt lat="45.59057000000001" lon="24.349100000000004">
    <ele>1391.43</ele>
   </trkpt>
   <trkpt lat="45.590740000000004" lon="24.349030000000003">
    <ele>1384.56</ele>
   </trkpt>
   <trkpt lat="45.59091" lon="24.34888">
    <ele>1381.61</ele>
   </trkpt>
   <trkpt lat="45.591080000000005" lon="24.34881">
    <ele>1377.0300000000002</ele>
   </trkpt>
   <trkpt lat="45.59129" lon="24.348460000000003">
    <ele>1368.19</ele>
   </trkpt>
   <trkpt lat="45.59131000000001" lon="24.348290000000002">
    <ele>1365.2600000000002</ele>
   </trkpt>
   <trkpt lat="45.59142000000001" lon="24.34823">
    <ele>1365.2600000000002</ele>
   </trkpt>
   <trkpt lat="45.591730000000005" lon="24.348000000000003">
    <ele>1357.0900000000001</ele>
   </trkpt>
   <trkpt lat="45.59194" lon="24.348000000000003">
    <ele>1353.91</ele>
   </trkpt>
   <trkpt lat="45.59205" lon="24.347880000000004">
    <ele>1350.97</ele>
   </trkpt>
   <trkpt lat="45.592130000000004" lon="24.347730000000002">
    <ele>1348.5900000000001</ele>
   </trkpt>
   <trkpt lat="45.5923" lon="24.347610000000003">
    <ele>1340.98</ele>
   </trkpt>
   <trkpt lat="45.59243" lon="24.34758">
    <ele>1338.24</ele>
   </trkpt>
   <trkpt lat="45.59245000000001" lon="24.34748">
    <ele>1335.0700000000002</ele>
   </trkpt>
   <trkpt lat="45.592420000000004" lon="24.34729">
    <ele>1329.82</ele>
   </trkpt>
   <trkpt lat="45.592580000000005" lon="24.34719">
    <ele>1326.1000000000001</ele>
   </trkpt>
   <trkpt lat="45.592760000000006" lon="24.347160000000002">
    <ele>1314.67</ele>
   </trkpt>
   <trkpt lat="45.593180000000004" lon="24.347040000000003">
    <ele>1305.5700000000002</ele>
   </trkpt>
   <trkpt lat="45.593410000000006" lon="24.346890000000002">
    <ele>1296.51</ele>
   </trkpt>
   <trkpt lat="45.59369" lon="24.34665">
    <ele>1282.48</ele>
   </trkpt>
   <trkpt lat="45.594030000000004" lon="24.345810000000004">
    <ele>1267.3700000000001</ele>
   </trkpt>
   <trkpt lat="45.594060000000006" lon="24.34559">
    <ele>1265.7500000000002</ele>
   </trkpt>
   <trkpt lat="45.59433000000001" lon="24.344900000000003">
    <ele>1257.89</ele>
   </trkpt>
   <trkpt lat="45.594660000000005" lon="24.344260000000002">
    <ele>1248.41</ele>
   </trkpt>
   <trkpt lat="45.59476" lon="24.3439">
    <ele>1245.92</ele>
   </trkpt>
   <trkpt lat="45.59492" lon="24.34317">
    <ele>1239.19</ele>
   </trkpt>
   <trkpt lat="45.59512" lon="24.342570000000002">
    <ele>1234.65</ele>
   </trkpt>
   <trkpt lat="45.59537" lon="24.34204">
    <ele>1225.64</ele>
   </trkpt>
   <trkpt lat="45.59566" lon="24.341610000000003">
    <ele>1218.82</ele>
   </trkpt>
   <trkpt lat="45.595850000000006" lon="24.341250000000002">
    <ele>1215.88</ele>
   </trkpt>
   <trkpt lat="45.59604" lon="24.340770000000003">
    <ele>1212.8700000000001</ele>
   </trkpt>
   <trkpt lat="45.59610000000001" lon="24.340400000000002">
    <ele>1209.27</ele>
   </trkpt>
   <trkpt lat="45.596360000000004" lon="24.33995">
    <ele>1205.91</ele>
   </trkpt>
   <trkpt lat="45.59663500196286" lon="24.339280003272307">
    <ele>1200.96</ele>
   </trkpt>
   <trkpt lat="45.59691" lon="24.338610000000003">
    <ele>1199.14</ele>
   </trkpt>
   <trkpt lat="45.59705" lon="24.338220000000003">
    <ele>1196.62</ele>
   </trkpt>
   <trkpt lat="45.59727" lon="24.33773">
    <ele>1192.72</ele>
   </trkpt>
   <trkpt lat="45.59736" lon="24.337570000000003">
    <ele>1192.16</ele>
   </trkpt>
   <trkpt lat="45.59745" lon="24.337220000000002">
    <ele>1191.51</ele>
   </trkpt>
   <trkpt lat="45.59763" lon="24.33677">
    <ele>1191.5500000000002</ele>
   </trkpt>
   <trkpt lat="45.59767" lon="24.33648">
    <ele>1191.68</ele>
   </trkpt>
   <trkpt lat="45.597770000000004" lon="24.33622">
    <ele>1190.69</ele>
   </trkpt>
   <trkpt lat="45.597840000000005" lon="24.33555">
    <ele>1188.71</ele>
   </trkpt>
   <trkpt lat="45.59794" lon="24.33545">
    <ele>1188.2</ele>
   </trkpt>
   <trkpt lat="45.598040000000005" lon="24.33546">
    <ele>1186.77</ele>
   </trkpt>
   <trkpt lat="45.598110000000005" lon="24.335410000000003">
    <ele>1186.3600000000001</ele>
   </trkpt>
   <trkpt lat="45.59828" lon="24.335150000000002">
    <ele>1185.0500000000002</ele>
   </trkpt>
   <trkpt lat="45.59843" lon="24.33519">
    <ele>1184.76</ele>
   </trkpt>
   <trkpt lat="45.59857" lon="24.334950000000003">
    <ele>1185.1</ele>
   </trkpt>
   <trkpt lat="45.59873" lon="24.335050000000003">
    <ele>1183.75</ele>
   </trkpt>
   <trkpt lat="45.59895" lon="24.335030000000003">
    <ele>1179.3200000000002</ele>
   </trkpt>
   <trkpt lat="45.599140000000006" lon="24.335040000000003">
    <ele>1176.19</ele>
   </trkpt>
   <trkpt lat="45.59930000000001" lon="24.33489">
    <ele>1175.16</ele>
   </trkpt>
   <trkpt lat="45.59964" lon="24.334310000000002">
    <ele>1169.99</ele>
   </trkpt>
   <trkpt lat="45.59973" lon="24.333990000000004">
    <ele>1167.3</ele>
   </trkpt>
   <trkpt lat="45.59987" lon="24.33368">
    <ele>1163.16</ele>
   </trkpt>
   <trkpt lat="45.59998" lon="24.33351">
    <ele>1159.78</ele>
   </trkpt>
   <trkpt lat="45.59998" lon="24.333380000000002">
    <ele>1158.39</ele>
   </trkpt>
   <trkpt lat="45.60005" lon="24.332970000000003">
    <ele>1154.74</ele>
   </trkpt>
   <trkpt lat="45.60002" lon="24.3321">
    <ele>1145.1</ele>
   </trkpt>
   <trkpt lat="45.60004000000001" lon="24.331860000000002">
    <ele>1142.3400000000001</ele>
   </trkpt>
   <trkpt lat="45.60011" lon="24.331650000000003">
    <ele>1141.24</ele>
   </trkpt>
   <trkpt lat="45.600080000000005" lon="24.331490000000002">
    <ele>1139.28</ele>
   </trkpt>
   <trkpt lat="45.600150000000006" lon="24.331210000000002">
    <ele>1135.68</ele>
   </trkpt>
   <trkpt lat="45.60016" lon="24.33067">
    <ele>1132.18</ele>
   </trkpt>
   <trkpt lat="45.60027" lon="24.330470000000002">
    <ele>1131.0300000000002</ele>
   </trkpt>
   <trkpt lat="45.60033000000001" lon="24.330260000000003">
    <ele>1129.89</ele>
   </trkpt>
   <trkpt lat="45.60036" lon="24.329500000000003">
    <ele>1124.02</ele>
   </trkpt>
   <trkpt lat="45.60049" lon="24.32907">
    <ele>1120.0700000000002</ele>
   </trkpt>
   <trkpt lat="45.600590000000004" lon="24.328860000000002">
    <ele>1117.85</ele>
   </trkpt>
   <trkpt lat="45.600660000000005" lon="24.328590000000002">
    <ele>1116.1100000000001</ele>
   </trkpt>
   <trkpt lat="45.60076" lon="24.327830000000002">
    <ele>1108.68</ele>
   </trkpt>
   <trkpt lat="45.600860000000004" lon="24.327510000000004">
    <ele>1105.22</ele>
   </trkpt>
   <trkpt lat="45.601000000000006" lon="24.3273">
    <ele>1102.3700000000001</ele>
   </trkpt>
   <trkpt lat="45.60127000000001" lon="24.32682">
    <ele>1092.99</ele>
   </trkpt>
   <trkpt lat="45.601350000000004" lon="24.32663">
    <ele>1088.13</ele>
   </trkpt>
   <trkpt lat="45.601420000000005" lon="24.326500000000003">
    <ele>1085.97</ele>
   </trkpt>
   <trkpt lat="45.601670000000006" lon="24.326150000000002">
    <ele>1073.91</ele>
   </trkpt>
   <trkpt lat="45.60177" lon="24.32591">
    <ele>1068.39</ele>
   </trkpt>
   <trkpt lat="45.602000000000004" lon="24.324790000000004">
    <ele>1045.8200000000002</ele>
   </trkpt>
   <trkpt lat="45.60204" lon="24.32468">
    <ele>1044.7900000000002</ele>
   </trkpt>
   <trkpt lat="45.602140000000006" lon="24.324530000000003">
    <ele>1044.84</ele>
   </trkpt>
   <trkpt lat="45.60219" lon="24.324630000000003">
    <ele>1045.3700000000001</ele>
   </trkpt>
   <trkpt lat="45.60221000000001" lon="24.324740000000002">
    <ele>1045.76</ele>
   </trkpt>
   <trkpt lat="45.6022" lon="24.324890000000003">
    <ele>1045.94</ele>
   </trkpt>
   <trkpt lat="45.602340000000005" lon="24.325280000000003">
    <ele>1045.4</ele>
   </trkpt>
   <trkpt lat="45.602410000000006" lon="24.32525">
    <ele>1043.6000000000001</ele>
   </trkpt>
   <trkpt lat="45.602540000000005" lon="24.32488">
    <ele>1038.1100000000001</ele>
   </trkpt>
   <trkpt lat="45.60269" lon="24.324980000000004">
    <ele>1033.2</ele>
   </trkpt>
   <trkpt lat="45.60309" lon="24.32516">
    <ele>1020.5699999999999</ele>
   </trkpt>
   <trkpt lat="45.60325" lon="24.325300000000002">
    <ele>1018.2500000000001</ele>
   </trkpt>
   <trkpt lat="45.603320000000004" lon="24.32542">
    <ele>1015.2</ele>
   </trkpt>
   <trkpt lat="45.603390000000005" lon="24.3256">
    <ele>1011.56</ele>
   </trkpt>
   <trkpt lat="45.60374" lon="24.32589">
    <ele>1000.0900000000001</ele>
   </trkpt>
   <trkpt lat="45.60419499977497" lon="24.32596999930669">
    <ele>987.1400000000001</ele>
   </trkpt>
   <trkpt lat="45.60465000000001" lon="24.326050000000002">
    <ele>973.2400000000001</ele>
   </trkpt>
   <trkpt lat="45.6049" lon="24.32619">
    <ele>971.2400000000001</ele>
   </trkpt>
   <trkpt lat="45.60528" lon="24.32644">
    <ele>959.5100000000001</ele>
   </trkpt>
   <trkpt lat="45.60557000000001" lon="24.32675">
    <ele>952.2600000000001</ele>
   </trkpt>
   <trkpt lat="45.60568000000001" lon="24.326900000000002">
    <ele>947.08</ele>
   </trkpt>
   <trkpt lat="45.60575" lon="24.326600000000003">
    <ele>942.2800000000001</ele>
   </trkpt>
   <trkpt lat="45.605970000000006" lon="24.32672">
    <ele>925.0300000000001</ele>
   </trkpt>
   <trkpt lat="45.60596" lon="24.326510000000003">
    <ele>925.0300000000001</ele>
   </trkpt>
   <trkpt lat="45.606030000000004" lon="24.32657">
    <ele>920.1800000000001</ele>
   </trkpt>
   <trkpt lat="45.60613" lon="24.326580000000003">
    <ele>915.6200000000001</ele>
   </trkpt>
   <trkpt lat="45.60629" lon="24.32654">
    <ele>909.3500000000001</ele>
   </trkpt>
   <trkpt lat="45.60634" lon="24.32645">
    <ele>909.3500000000001</ele>
   </trkpt>
   <trkpt lat="45.606230000000004" lon="24.32625">
    <ele>903.33</ele>
   </trkpt>
   <trkpt lat="45.60633000000001" lon="24.32619">
    <ele>899.22</ele>
   </trkpt>
   <trkpt lat="45.606590000000004" lon="24.326310000000003">
    <ele>891.75</ele>
   </trkpt>
   <trkpt lat="45.606790000000004" lon="24.32626">
    <ele>885.9500000000002</ele>
   </trkpt>
   <trkpt lat="45.60696" lon="24.32618">
    <ele>881.0100000000001</ele>
   </trkpt>
   <trkpt lat="45.60718000000001" lon="24.326020000000003">
    <ele>876.95</ele>
   </trkpt>
   <trkpt lat="45.607530000000004" lon="24.3256">
    <ele>868.8</ele>
   </trkpt>
   <trkpt lat="45.607620000000004" lon="24.32543">
    <ele>863.5600000000001</ele>
   </trkpt>
   <trkpt lat="45.60759" lon="24.325390000000002">
    <ele>861.04</ele>
   </trkpt>
   <trkpt lat="45.607730000000004" lon="24.32532">
    <ele>861.04</ele>
   </trkpt>
   <trkpt lat="45.60781" lon="24.32541">
    <ele>850.1800000000001</ele>
   </trkpt>
   <trkpt lat="45.60804" lon="24.32578">
    <ele>846.8800000000001</ele>
   </trkpt>
   <trkpt lat="45.60848000000001" lon="24.325930000000003">
    <ele>832.9000000000001</ele>
   </trkpt>
   <trkpt lat="45.60862" lon="24.3261">
    <ele>823.09</ele>
   </trkpt>
   <trkpt lat="45.608850000000004" lon="24.326030000000003">
    <ele>812.76</ele>
   </trkpt>
   <trkpt lat="45.60931" lon="24.325960000000002">
    <ele>795.46</ele>
   </trkpt>
   <trkpt lat="45.60936" lon="24.326">
    <ele>794.85</ele>
   </trkpt>
   <trkpt lat="45.60954" lon="24.325930000000003">
    <ele>791.57</ele>
   </trkpt>
   <trkpt lat="45.60981" lon="24.3259">
    <ele>788.71</ele>
   </trkpt>
   <trkpt lat="45.609970000000004" lon="24.325770000000002">
    <ele>786.12</ele>
   </trkpt>
   <trkpt lat="45.610760000000006" lon="24.32531">
    <ele>775.57</ele>
   </trkpt>
   <trkpt lat="45.610870000000006" lon="24.32516">
    <ele>769.9800000000001</ele>
   </trkpt>
   <trkpt lat="45.61097" lon="24.324890000000003">
    <ele>765.3100000000001</ele>
   </trkpt>
   <trkpt lat="45.61126" lon="24.324510000000004">
    <ele>760.5200000000001</ele>
   </trkpt>
   <trkpt lat="45.61148" lon="24.324050000000003">
    <ele>753.48</ele>
   </trkpt>
   <trkpt lat="45.61162" lon="24.32355">
    <ele>747.97</ele>
   </trkpt>
   <trkpt lat="45.61177000000001" lon="24.323420000000002">
    <ele>743.62</ele>
   </trkpt>
   <trkpt lat="45.61193" lon="24.32335">
    <ele>740.8100000000001</ele>
   </trkpt>
   <trkpt lat="45.61238" lon="24.323320000000002">
    <ele>731.5</ele>
   </trkpt>
   <trkpt lat="45.61287" lon="24.323310000000003">
    <ele>722.07</ele>
   </trkpt>
   <trkpt lat="45.613060000000004" lon="24.323500000000003">
    <ele>717.4</ele>
   </trkpt>
   <trkpt lat="45.613150000000005" lon="24.32347">
    <ele>717.4</ele>
   </trkpt>
   <trkpt lat="45.613475000971164" lon="24.32302000248623">
    <ele>705.96</ele>
   </trkpt>
   <trkpt lat="45.613800000000005" lon="24.322570000000002">
    <ele>699.6600000000001</ele>
   </trkpt>
   <trkpt lat="45.613710000000005" lon="24.322570000000002">
    <ele>702.58</ele>
   </trkpt>
  </trkseg>
 </trk>
</gpx>
